NORAD_CAT_ID,OBJECT_NAME,OBJECT_TYPE,EPOCH,MEAN_MOTION,ECCENTRICITY,INCLINATION,RA_OF_ASC_NODE,ARG_OF_PERICENTER,MEAN_ANOMALY,BSTAR,MEAN_MOTION_DOT,MEAN_MOTION_DDOT,TLE_LINE0,TLE_LINE1,TLE_LINE2,SEMIMAJOR_AXIS,PERIOD,APOGEE,PERIGEE,DECAYED
49742.0,STARLINK-3202,PAYLOAD,2023-02-19 11:21:04,15.08877004,8.11e-05,53.2142,111.0337,132.3636,227.7424,0.0016174,0.00025573,0.0,0 STARLINK-3202,1 49742U 21115U   23050.47296794  .00025573  00000-0  16174-2 0  9997,2 49742  53.2142 111.0337 0000811 132.3636 227.7424 15.08877004 67321,6917.767,95.435,540.193,539.071,0.0
49742.0,STARLINK-3202,PAYLOAD,2023-02-19 20:53:22,15.08854733,8.07e-05,53.2152,109.2482,126.1296,233.9771,-0.00031031,-5.225e-05,0.0,0 STARLINK-3202,1 49742U 21115U   23050.87040342 -.00005225  00000-0 -31031-3 0  9991,2 49742  53.2152 109.2482 0000807 126.1296 233.9771 15.08854733 68497,6917.835,95.437,540.259,539.142,0.0
49742.0,STARLINK-3202,PAYLOAD,2023-02-20 12:47:13,15.08867226,7.89e-05,53.2145,106.2752,112.9937,247.1138,0.0018169,0.00028768,0.0,0 STARLINK-3202,1 49742U 21115U   23051.53279869  .00028768  00000-0  18169-2 0  9994,2 49742  53.2145 106.2752 0000789 112.9937 247.1138 15.08867226 67483,6917.797,95.436,540.208,539.116,0.0
49742.0,STARLINK-3202,PAYLOAD,2023-02-21 03:05:42,15.08851398,0.0001773,53.2134,103.5984,87.046,273.0735,0.0013464,0.00021212,0.0,0 STARLINK-3202,1 49742U 21115U   23052.12896528  .00021212  00000-0  13464-2 0  9997,2 49742  53.2134 103.5984 0001773  87.0460 273.0735 15.08851398 68682,6917.846,95.437,540.937,538.484,0.0
49742.0,STARLINK-3202,PAYLOAD,2023-02-21 11:02:38,15.0885018,7.2e-05,53.2147,102.1114,91.2056,268.9019,0.0018874,0.00029886,0.0,0 STARLINK-3202,1 49742U 21115U   23052.46016322  .00029886  00000-0  18874-2 0  9995,2 49742  53.2147 102.1114 0000720  91.2056 268.9019 15.08850180 67624,6917.849,95.437,540.212,539.216,0.0
49742.0,STARLINK-3202,PAYLOAD,2023-02-21 20:34:56,15.08859229,9.82e-05,53.215,100.3262,97.9602,262.1502,0.0019029,0.00030142,0.0,0 STARLINK-3202,1 49742U 21115U   23052.85760383  .00030142  00000-0  19029-2 0  9991,2 49742  53.2150 100.3262 0000982  97.9602 262.1502 15.08859229 67684,6917.822,95.436,540.366,539.007,0.0
49742.0,STARLINK-3202,PAYLOAD,2023-02-22 09:18:01,15.08853291,0.0001018,53.2148,97.9475,95.8764,264.2344,0.00067301,0.00010443,0.0,0 STARLINK-3202,1 49742U 21115U   23053.38752082  .00010443  00000-0  67301-3 0  9996,2 49742  53.2148  97.9475 0001018  95.8764 264.2344 15.08853291 68877,6917.84,95.437,540.409,539.001,0.0
49742.0,STARLINK-3202,PAYLOAD,2023-02-22 12:28:47,15.08857416,0.0001005,53.2145,97.3523,98.9825,261.1281,0.00065241,0.00010115,0.0,0 STARLINK-3202,1 49742U 21115U   23053.51999869  .00010115  00000-0  65241-3 0  9994,2 49742  53.2145  97.3523 0001005  98.9825 261.1281 15.08857416 67788,6917.827,95.436,540.387,538.997,0.0
49742.0,STARLINK-3202,PAYLOAD,2023-02-22 20:25:43,15.08867828,0.0001018,53.2147,95.8658,95.5886,264.5222,0.00076835,0.00011971,0.0,0 STARLINK-3202,1 49742U 21115U   23053.85119276  .00011971  00000-0  76835-3 0  9999,2 49742  53.2147  95.8658 0001018  95.5886 264.5222 15.08867828 67832,6917.795,95.436,540.365,538.956,0.0
49742.0,STARLINK-3202,PAYLOAD,2023-02-23 12:19:35,15.08843766,0.0001216,53.2147,92.8909,89.7659,270.3472,0.00028191,4.202e-05,0.0,0 STARLINK-3202,1 49742U 21115U   23054.51360390  .00004202  00000-0  28191-3 0  9999,2 49742  53.2147  92.8909 0001216  89.7659 270.3472 15.08843766 67939,6917.869,95.437,540.575,538.893,0.0
49742.0,STARLINK-3202,PAYLOAD,2023-02-23 13:54:58,15.08848525,0.0001168,53.2148,92.5943,99.6448,260.4677,0.00040878,6.225e-05,0.0,0 STARLINK-3202,1 49742U 21115U   23054.57984229  .00006225  00000-0  40878-3 0  9991,2 49742  53.2148  92.5943 0001168  99.6448 260.4677 15.08848525 69057,6917.854,95.437,540.527,538.911,0.0
49742.0,STARLINK-3202,PAYLOAD,2023-02-24 05:48:50,15.08843305,0.0001471,53.2162,89.6191,94.5034,265.6126,0.00040692,6.195e-05,0.0,0 STARLINK-3202,1 49742U 21115U   23055.24224567  .00006195  00000-0  40692-3 0  9998,2 49742  53.2162  89.6191 0001471  94.5034 265.6126 15.08843305 69155,6917.87,95.437,540.753,538.718,0.0
49742.0,STARLINK-3202,PAYLOAD,2023-02-24 12:10:22,15.08848797,0.0001531,53.2165,88.4287,104.6832,255.433,0.00046946,7.193e-05,0.0,0 STARLINK-3202,1 49742U 21115U   23055.50720327  .00007193  00000-0  46946-3 0  9999,2 49742  53.2165  88.4287 0001531 104.6832 255.4330 15.08848797 68082,6917.854,95.437,540.778,538.659,0.0
49742.0,STARLINK-3202,PAYLOAD,2023-02-24 18:31:55,15.08827973,0.0001382,53.2161,87.2423,82.7621,277.3528,4.8905e-05,4.9e-06,0.0,0 STARLINK-3202,1 49742U 21115U   23055.77216839  .00000490  00000-0  48905-4 0  9997,2 49742  53.2161  87.2423 0001382  82.7621 277.3528 15.08827973 69236,6917.917,95.438,540.738,538.826,0.0
49742.0,STARLINK-3202,PAYLOAD,2023-02-25 05:39:37,15.08828383,0.0001471,53.2163,85.1599,91.2993,268.8168,-0.00012658,-2.301e-05,0.0,0 STARLINK-3202,1 49742U 21115U   23056.23585232 -.00002301  00000-0 -12658-3 0  9995,2 49742  53.2163  85.1599 0001471  91.2993 268.8168 15.08828383 68190,6917.916,95.438,540.799,538.763,0.0
49742.0,STARLINK-3202,PAYLOAD,2023-02-25 18:22:42,15.0883499,0.0001461,53.2159,82.7824,84.6242,275.4917,5.6291e-05,6.08e-06,0.0,0 STARLINK-3202,1 49742U 21115U   23056.76577383  .00000608  00000-0  56291-4 0  9999,2 49742  53.2159  82.7824 0001461  84.6242 275.4917 15.08834990 68277,6917.896,95.438,540.771,538.75,0.0
49742.0,STARLINK-3202,PAYLOAD,2023-02-26 03:55:01,15.08852713,0.0001336,53.216,80.9966,98.4921,261.6222,0.00040517,6.168e-05,0.0,0 STARLINK-3202,1 49742U 21115U   23057.16320814  .00006168  00000-0  40517-3 0  9999,2 49742  53.2160  80.9966 0001336  98.4921 261.6222 15.08852713 69443,6917.842,95.437,540.631,538.782,0.0
49742.0,STARLINK-3202,PAYLOAD,2023-02-26 11:51:56,15.08870576,0.0001299,53.2162,79.5104,88.2791,271.835,0.0012435,0.00019574,0.0,0 STARLINK-3202,1 49742U 21115U   23057.49440614  .00019574  00000-0  12435-2 0  9998,2 49742  53.2162  79.5104 0001299  88.2791 271.8350 15.08870576 68387,6917.787,95.436,540.551,538.753,0.0
49742.0,STARLINK-3202,PAYLOAD,2023-02-26 18:13:29,15.08838093,0.0001075,53.2159,78.3204,102.1896,257.9217,-0.00011705,-2.15e-05,0.0,0 STARLINK-3202,1 49742U 21115U   23057.75936974 -.00002150  00000-0 -11705-3 0  9990,2 49742  53.2159  78.3204 0001075 102.1896 257.9217 15.08838093 69538,6917.886,95.438,540.495,539.008,0.0
49742.0,STARLINK-3202,PAYLOAD,2023-02-27 10:07:20,15.08854697,0.0001281,53.2156,75.3473,100.1848,259.9289,0.0019586,0.00031033,0.0,0 STARLINK-3202,1 49742U 21115U   23058.42176998  .00031033  00000-0  19586-2 0  9991,2 49742  53.2156  75.3473 0001281 100.1848 259.9289 15.08854697 69634,6917.835,95.437,540.587,538.814,0.0
49742.0,STARLINK-3202,PAYLOAD,2023-02-27 18:04:16,15.08889064,0.0001123,53.2155,73.8604,116.4207,243.6901,0.0035093,0.00056082,0.0,0 STARLINK-3202,1 49742U 21115U   23058.75296581  .00056082  00000-0  35093-2 0  9990,2 49742  53.2155  73.8604 0001123 116.4207 243.6901 15.08889064 68575,6917.73,95.434,540.372,538.819,0.0
49742.0,STARLINK-3202,PAYLOAD,2023-02-28 06:47:20,15.08883872,0.0001264,53.2154,71.4815,115.8303,244.2819,0.0022033,0.00034994,0.0,0 STARLINK-3202,1 49742U 21115U   23059.28287890  .00034994  00000-0  22033-2 0  9990,2 49742  53.2154  71.4815 0001264 115.8303 244.2819 15.08883872 69766,6917.746,95.435,540.486,538.737,0.0
49742.0,STARLINK-3202,PAYLOAD,2023-02-28 09:58:06,15.08885188,0.0001362,53.2155,70.8869,107.0477,253.0664,0.0017074,0.00027023,0.0,0 STARLINK-3202,1 49742U 21115U   23059.41535582  .00027023  00000-0  17074-2 0  9993,2 49742  53.2155  70.8869 0001362 107.0477 253.0664 15.08885188 68670,6917.742,95.435,540.549,538.665,0.0
49742.0,STARLINK-3202,PAYLOAD,2023-02-28 17:55:03,15.08809898,0.0001306,53.2155,69.4,92.4872,267.6269,-0.0024418,-0.00038907,0.0,0 STARLINK-3202,1 49742U 21115U   23059.74656375 -.00038907  00000-0 -24418-2 0  9998,2 49742  53.2155  69.4000 0001306  92.4872 267.6269 15.08809898 68727,6917.972,95.439,540.741,538.934,0.0
49742.0,STARLINK-3202,PAYLOAD,2023-03-01 09:48:56,15.08794236,0.0001263,53.2153,66.4267,81.1019,279.0116,0.0016523,0.00026073,0.0,0 STARLINK-3202,1 49742U 21115U   23060.40898958  .00026073  00000-0  16523-2 0  9995,2 49742  53.2153  66.4267 0001263  81.1019 279.0116 15.08794236 69938,6918.02,95.44,540.759,539.012,0.0
49742.0,STARLINK-3202,PAYLOAD,2023-03-01 17:45:52,15.08824123,0.0001162,53.2157,64.9398,87.2054,272.9071,0.002236,0.00035462,0.0,0 STARLINK-3202,1 49742U 21115U   23060.74019439  .00035462  00000-0  22360-2 0  9999,2 49742  53.2157  64.9398 0001162  87.2054 272.9071 15.08824123 69980,6917.929,95.439,540.598,538.99,0.0
49742.0,STARLINK-3202,PAYLOAD,2023-03-02 17:36:38,15.0889572,0.0001269,53.2162,60.479,87.4523,272.6614,0.0022235,0.00035331,0.0,0 STARLINK-3202,1 49742U 21115U   23061.73377970  .00035331  00000-0  22235-2 0  9992,2 49742  53.2162  60.4790 0001269  87.4523 272.6614 15.08895720 69020,6917.71,95.434,540.453,538.697,0.0
49742.0,STARLINK-3202,PAYLOAD,2023-03-03 09:30:29,15.08899478,0.0001303,53.2166,57.5051,96.2604,263.8537,0.0025959,0.00041336,0.0,0 STARLINK-3202,1 49742U 21115U   23062.39617211  .00041336  00000-0  25959-2 0  9998,2 49742  53.2166  57.5051 0001303  96.2604 263.8537 15.08899478 70233,6917.699,95.434,540.465,538.662,0.0
49742.0,STARLINK-3202,PAYLOAD,2023-03-04 06:10:29,15.08868187,0.0001118,53.2168,53.6391,108.1662,251.9452,0.0016944,0.00026802,0.0,0 STARLINK-3202,1 49742U 21115U   23063.25728772  .00026802  00000-0  16944-2 0  9994,2 49742  53.2168  53.6391 0001118 108.1662 251.9452 15.08868187 70361,6917.794,95.436,540.433,538.886,0.0
49742.0,STARLINK-3202,PAYLOAD,2023-03-04 09:21:15,15.08875469,0.000101,53.2168,53.0439,99.1285,260.9821,0.0018592,0.00029454,0.0,0 STARLINK-3202,1 49742U 21115U   23063.38976497  .00029454  00000-0  18592-2 0  9994,2 49742  53.2168  53.0439 0001010  99.1285 260.9821 15.08875469 69278,6917.772,95.435,540.336,538.938,0.0
